{
  "type": "FeatureCollection",
  "features": [
    {
      "type": "Feature",
      "properties": {
        "norad_id": 66711,
        "name": "FLOCK 4H-8",
        "group": "last-30-days",
        "lat": -9.819133838673162,
        "lon": 70.49955882780019,
        "alt_km": 517.5118385688911,
        "timestamp": "2025-12-23T14:49:07.963883+00:00",
        "meta_object_name": "FLOCK 4H-8",
        "meta_object_id": "2025-276AX",
        "meta_epoch": "2025-12-23T06:00:00.999648",
        "meta_mean_motion": 15.17497887,
        "meta_eccentricity": 0.00024006,
        "meta_inclination": 97.4429,
        "meta_ra_of_asc_node": 68.842,
        "meta_arg_of_pericenter": 268.2125,
        "meta_mean_anomaly": 235.9343,
        "meta_ephemeris_type": 0,
        "meta_classification_type": "U",
        "meta_norad_cat_id": 66711,
        "meta_element_set_no": 999,
        "meta_rev_at_epoch": 172,
        "meta_bstar": -0.0006841095,
        "meta_mean_motion_dot": -0.00013741,
        "meta_mean_motion_ddot": 0,
        "tle_line1": "1 66711U 25276AX  25357.25001157 -.00013741  00000+0 -68411-3 0  9996",
        "tle_line2": "2 66711  97.4429  68.8420 0002400 268.2125 235.9343 15.17497887  1724"
      },
      "geometry": {
        "type": "Point",
        "coordinates": [
          70.49955882780019,
          -9.819133838673162
        ]
      }
    },
    {
      "type": "Feature",
      "properties": {
        "norad_id": 66712,
        "name": "FLOCK 4H-9",
        "group": "last-30-days",
        "lat": 31.418573928370627,
        "lon": 64.63836721344472,
        "alt_km": 512.2785047561601,
        "timestamp": "2025-12-23T14:49:07.963899+00:00",
        "meta_object_name": "FLOCK 4H-9",
        "meta_object_id": "2025-276AY",
        "meta_epoch": "2025-12-23T03:36:17.035488",
        "meta_mean_motion": 15.17920569,
        "meta_eccentricity": 0.00027036,
        "meta_inclination": 97.4424,
        "meta_ra_of_asc_node": 68.7589,
        "meta_arg_of_pericenter": 213.5344,
        "meta_mean_anomaly": 146.5719,
        "meta_ephemeris_type": 0,
        "meta_classification_type": "U",
        "meta_norad_cat_id": 66712,
        "meta_element_set_no": 999,
        "meta_rev_at_epoch": 370,
        "meta_bstar": 0.00055351254,
        "meta_mean_motion_dot": 0.00011171,
        "meta_mean_motion_ddot": 0,
        "tle_line1": "1 66712U 25276AY  25357.15019717  .00011171  00000+0  55351-3 0  9999",
        "tle_line2": "2 66712  97.4424  68.7589 0002703 213.5344 146.5719 15.17920569  3709"
      },
      "geometry": {
        "type": "Point",
        "coordinates": [
          64.63836721344472,
          31.418573928370627
        ]
      }
    },
    {
      "type": "Feature",
      "properties": {
        "norad_id": 66713,
        "name": "FLOCK 4H-10",
        "group": "last-30-days",
        "lat": -27.664949035016328,
        "lon": 73.10882537719036,
        "alt_km": 519.3751499391838,
        "timestamp": "2025-12-23T14:49:07.963912+00:00",
        "meta_object_name": "FLOCK 4H-10",
        "meta_object_id": "2025-276AZ",
        "meta_epoch": "2025-12-23T03:51:43.965792",
        "meta_mean_motion": 15.17277225,
        "meta_eccentricity": 0.00036828,
        "meta_inclination": 97.4401,
        "meta_ra_of_asc_node": 68.7323,
        "meta_arg_of_pericenter": 255.625,
        "meta_mean_anomaly": 104.4575,
        "meta_ephemeris_type": 0,
        "meta_classification_type": "U",
        "meta_norad_cat_id": 66713,
        "meta_element_set_no": 999,
        "meta_rev_at_epoch": 370,
        "meta_bstar": 0.00087651121,
        "meta_mean_motion_dot": 0.00017421,
        "meta_mean_motion_ddot": 0,
        "tle_line1": "1 66713U 25276AZ  25357.16092553  .00017421  00000+0  87651-3 0  9992",
        "tle_line2": "2 66713  97.4401  68.7323 0003682 255.6250 104.4575 15.17277225  3708"
      },
      "geometry": {
        "type": "Point",
        "coordinates": [
          73.10882537719036,
          -27.664949035016328
        ]
      }
    },
    {
      "type": "Feature",
      "properties": {
        "norad_id": 66714,
        "name": "FLOCK 4H-11",
        "group": "last-30-days",
        "lat": 2.0503769657429936,
        "lon": 68.9360246022887,
        "alt_km": 515.2076648594657,
        "timestamp": "2025-12-23T14:49:07.963923+00:00",
        "meta_object_name": "FLOCK 4H-11",
        "meta_object_id": "2025-276BA",
        "meta_epoch": "2025-12-22T15:04:33.788640",
        "meta_mean_motion": 15.17781228,
        "meta_eccentricity": 0.00021529,
        "meta_inclination": 97.4416,
        "meta_ra_of_asc_node": 68.2317,
        "meta_arg_of_pericenter": 278.4399,
        "meta_mean_anomaly": 81.6591,
        "meta_ephemeris_type": 0,
        "meta_classification_type": "U",
        "meta_norad_cat_id": 66714,
        "meta_element_set_no": 999,
        "meta_rev_at_epoch": 362,
        "meta_bstar": 0.00068051358,
        "meta_mean_motion_dot": 0.00013699,
        "meta_mean_motion_ddot": 0,
        "tle_line1": "1 66714U 25276BA  25356.62816885  .00013699  00000+0  68051-3 0  9991",
        "tle_line2": "2 66714  97.4416  68.2317 0002152 278.4399  81.6591 15.17781228  3629"
      },
      "geometry": {
        "type": "Point",
        "coordinates": [
          68.9360246022887,
          2.0503769657429936
        ]
      }
    },
    {
      "type": "Feature",
      "properties": {
        "norad_id": 66715,
        "name": "FLOCK 4H-12",
        "group": "last-30-days",
        "lat": 43.34763196961109,
        "lon": 62.12018347303365,
        "alt_km": 509.21815900499314,
        "timestamp": "2025-12-23T14:49:07.963935+00:00",
        "meta_object_name": "FLOCK 4H-12",
        "meta_object_id": "2025-276BB",
        "meta_epoch": "2025-12-23T03:33:10.813248",
        "meta_mean_motion": 15.18106933,
        "meta_eccentricity": 0.00022292,
        "meta_inclination": 97.4393,
        "meta_ra_of_asc_node": 68.7435,
        "meta_arg_of_pericenter": 187.7396,
        "meta_mean_anomaly": 172.3804,
        "meta_ephemeris_type": 0,
        "meta_classification_type": "U",
        "meta_norad_cat_id": 66715,
        "meta_element_set_no": 999,
        "meta_rev_at_epoch": 401,
        "meta_bstar": 0.00010998803,
        "meta_mean_motion_dot": 2.176e-05,
        "meta_mean_motion_ddot": 0,
        "tle_line1": "1 66715U 25276BB  25357.14804182  .00002176  00000+0  10999-3 0  9993",
        "tle_line2": "2 66715  97.4393  68.7435 0002229 187.7396 172.3804 15.18106933  4018"
      },
      "geometry": {
        "type": "Point",
        "coordinates": [
          62.12018347303365,
          43.34763196961109
        ]
      }
    },
    {
      "type": "Feature",
      "properties": {
        "norad_id": 66716,
        "name": "FLOCK 4H-13",
        "group": "last-30-days",
        "lat": 54.582994668490585,
        "lon": 58.631582708862666,
        "alt_km": 505.7456992158841,
        "timestamp": "2025-12-23T14:49:07.963950+00:00",
        "meta_object_name": "FLOCK 4H-13",
        "meta_object_id": "2025-276BC",
        "meta_epoch": "2025-12-23T03:30:12.705696",
        "meta_mean_motion": 15.18201087,
        "meta_eccentricity": 0.00013295,
        "meta_inclination": 97.4426,
        "meta_ra_of_asc_node": 68.7608,
        "meta_arg_of_pericenter": 123.9221,
        "meta_mean_anomaly": 236.214,
        "meta_ephemeris_type": 0,
        "meta_classification_type": "U",
        "meta_norad_cat_id": 66716,
        "meta_element_set_no": 999,
        "meta_rev_at_epoch": 370,
        "meta_bstar": 0.00075887126,
        "meta_mean_motion_dot": 0.00015473,
        "meta_mean_motion_ddot": 0,
        "tle_line1": "1 66716U 25276BC  25357.14598039  .00015473  00000+0  75887-3 0  9996",
        "tle_line2": "2 66716  97.4426  68.7608 0001329 123.9221 236.2140 15.18201087  3701"
      },
      "geometry": {
        "type": "Point",
        "coordinates": [
          58.631582708862666,
          54.582994668490585
        ]
      }
    },
    {
      "type": "Feature",
      "properties": {
        "norad_id": 66717,
        "name": "FLOCK 4H-14",
        "group": "last-30-days",
        "lat": 65.42977766171035,
        "lon": 52.614549734788675,
        "alt_km": 503.990874534722,
        "timestamp": "2025-12-23T14:49:07.963973+00:00",
        "meta_object_name": "FLOCK 4H-14",
        "meta_object_id": "2025-276BD",
        "meta_epoch": "2025-12-23T03:27:18.906912",
        "meta_mean_motion": 15.18345372,
        "meta_eccentricity": 0.00016431,
        "meta_inclination": 97.4415,
        "meta_ra_of_asc_node": 68.76,
        "meta_arg_of_pericenter": 133.5372,
        "meta_mean_anomaly": 226.5999,
        "meta_ephemeris_type": 0,
        "meta_classification_type": "U",
        "meta_norad_cat_id": 66717,
        "meta_element_set_no": 999,
        "meta_rev_at_epoch": 295,
        "meta_bstar": 0.00035762773,
        "meta_mean_motion_dot": 7.279e-05,
        "meta_mean_motion_ddot": 0,
        "tle_line1": "1 66717U 25276BD  25357.14396883  .00007279  00000+0  35763-3 0  9994",
        "tle_line2": "2 66717  97.4415  68.7600 0001643 133.5372 226.5999 15.18345372  2951"
      },
      "geometry": {
        "type": "Point",
        "coordinates": [
          52.614549734788675,
          65.42977766171035
        ]
      }
    }
  ]
}